[
    {
        "Altitude(m)": 705123.3151131119,
        "Argument of Periapsis(deg)": 0.004556048474650827,
        "Eccentricity": 0.0,
        "Inclination(deg)": 45.0,
        "Latitude(deg)": 34.87114047992161,
        "Longitude(deg)": -166.4137201471504,
        "Mean Anomaly(deg)": 53.70418665899234,
        "RAAN(deg)": 249.99569922341678,
        "Satellite Name": "Constellation 1 1103",
        "Satellite Number": 1103,
        "Semi-Major Axis(m)": 7083131.272910544,
        "Time(s)": 76
    },
    {
        "Altitude(m)": 705129.2693291194,
        "Argument of Periapsis(deg)": 0.004615996480896233,
        "Eccentricity": 0.0,
        "Inclination(deg)": 45.0,
        "Latitude(deg)": 34.90218510447461,
        "Longitude(deg)": -166.3542572796959,
        "Mean Anomaly(deg)": 53.764887799242224,
        "RAAN(deg)": 249.99564263425123,
        "Satellite Name": "Constellation 1 1103",
        "Satellite Number": 1103,
        "Semi-Major Axis(m)": 7083131.272910544,
        "Time(s)": 77
    },
    {
        "Altitude(m)": 705135.2221241163,
        "Argument of Periapsis(deg)": 0.004675944487141638,
        "Eccentricity": 0.0,
        "Inclination(deg)": 45.0,
        "Latitude(deg)": 34.93319630541187,
        "Longitude(deg)": -166.29474660782805,
        "Mean Anomaly(deg)": 53.82558893949216,
        "RAAN(deg)": 249.9955860450856,
        "Satellite Name": "Constellation 1 1103",
        "Satellite Number": 1103,
        "Semi-Major Axis(m)": 7083131.272910544,
        "Time(s)": 78
    },
    {
        "Altitude(m)": 705141.1734601436,
        "Argument of Periapsis(deg)": 0.004735892493387044,
        "Eccentricity": 0.0,
        "Inclination(deg)": 45.0,
        "Latitude(deg)": 34.964174019828114,
        "Longitude(deg)": -166.23518809189747,
        "Mean Anomaly(deg)": 53.88629007974205,
        "RAAN(deg)": 249.99552945592004,
        "Satellite Name": "Constellation 1 1103",
        "Satellite Number": 1103,
        "Semi-Major Axis(m)": 7083131.272910544,
        "Time(s)": 79
    },
    {
        "Altitude(m)": 705147.1232992734,
        "Argument of Periapsis(deg)": 0.004795840499632449,
        "Eccentricity": 0.0,
        "Inclination(deg)": 45.0,
        "Latitude(deg)": 34.99511818475386,
        "Longitude(deg)": -166.1755816924539,
        "Mean Anomaly(deg)": 53.94699121999193,
        "RAAN(deg)": 249.99547286675448,
        "Satellite Name": "Constellation 1 1103",
        "Satellite Number": 1103,
        "Semi-Major Axis(m)": 7083131.272910544,
        "Time(s)": 80
    },
    {
        "Altitude(m)": 705153.0716036,
        "Argument of Periapsis(deg)": 0.004855788505877855,
        "Eccentricity": 0.0,
        "Inclination(deg)": 45.0,
        "Latitude(deg)": 35.02602873715556,
        "Longitude(deg)": -166.1159273702474,
        "Mean Anomaly(deg)": 54.00769236024177,
        "RAAN(deg)": 249.99541627758893,
        "Satellite Name": "Constellation 1 1103",
        "Satellite Number": 1103,
        "Semi-Major Axis(m)": 7083131.272910544,
        "Time(s)": 81
    },
    {
        "Altitude(m)": 705159.0183352414,
        "Argument of Periapsis(deg)": 0.00491573651212326,
        "Eccentricity": 0.0,
        "Inclination(deg)": 45.0,
        "Latitude(deg)": 35.05690561393615,
        "Longitude(deg)": -166.05622525432594,
        "Mean Anomaly(deg)": 54.06839350049175,
        "RAAN(deg)": 249.99535968842332,
        "Satellite Name": "Constellation 1 1103",
        "Satellite Number": 1103,
        "Semi-Major Axis(m)": 7083131.272910544,
        "Time(s)": 82
    },
    {
        "Altitude(m)": 705164.9634563362,
        "Argument of Periapsis(deg)": 0.004975684518368666,
        "Eccentricity": 0.0,
        "Inclination(deg)": 45.0,
        "Latitude(deg)": 35.08774875193389,
        "Longitude(deg)": -165.99647496964974,
        "Mean Anomaly(deg)": 54.12909464074165,
        "RAAN(deg)": 249.99530309925774,
        "Satellite Name": "Constellation 1 1103",
        "Satellite Number": 1103,
        "Semi-Major Axis(m)": 7083131.272910544,
        "Time(s)": 83
    },
    {
        "Altitude(m)": 705170.9069290516,
        "Argument of Periapsis(deg)": 0.005035632524614072,
        "Eccentricity": 0.0,
        "Inclination(deg)": 45.0,
        "Latitude(deg)": 35.11855808792444,
        "Longitude(deg)": -165.93667664567351,
        "Mean Anomaly(deg)": 54.18979578099148,
        "RAAN(deg)": 249.9952465100922,
        "Satellite Name": "Constellation 1 1103",
        "Satellite Number": 1103,
        "Semi-Major Axis(m)": 7083131.272910544,
        "Time(s)": 84
    },
    {
        "Altitude(m)": 705176.8487155759,
        "Argument of Periapsis(deg)": 0.0050955805308594785,
        "Eccentricity": 0.0,
        "Inclination(deg)": 45.0,
        "Latitude(deg)": 35.149333558619894,
        "Longitude(deg)": -165.87683024396011,
        "Mean Anomaly(deg)": 54.250496921241414,
        "RAAN(deg)": 249.99518992092663,
        "Satellite Name": "Constellation 1 1103",
        "Satellite Number": 1103,
        "Semi-Major Axis(m)": 7083131.272910544,
        "Time(s)": 85
    },
    {
        "Altitude(m)": 705182.7887781254,
        "Argument of Periapsis(deg)": 0.005155528537104883,
        "Eccentricity": 0.0,
        "Inclination(deg)": 45.0,
        "Latitude(deg)": 35.18007510066912,
        "Longitude(deg)": -165.81693572627876,
        "Mean Anomaly(deg)": 54.311198061491304,
        "RAAN(deg)": 249.99513333176108,
        "Satellite Name": "Constellation 1 1103",
        "Satellite Number": 1103,
        "Semi-Major Axis(m)": 7083131.272910544,
        "Time(s)": 86
    },
    {
        "Altitude(m)": 705188.7270789357,
        "Argument of Periapsis(deg)": 0.0052154765433502885,
        "Eccentricity": 0.0,
        "Inclination(deg)": 45.0,
        "Latitude(deg)": 35.21078265065808,
        "Longitude(deg)": -165.75699305460634,
        "Mean Anomaly(deg)": 54.371899201741186,
        "RAAN(deg)": 249.99507674259547,
        "Satellite Name": "Constellation 1 1103",
        "Satellite Number": 1103,
        "Semi-Major Axis(m)": 7083131.272910544,
        "Time(s)": 87
    },
    {
        "Altitude(m)": 705194.6635802707,
        "Argument of Periapsis(deg)": 0.005275424549595694,
        "Eccentricity": 0.0,
        "Inclination(deg)": 45.0,
        "Latitude(deg)": 35.2414561451099,
        "Longitude(deg)": -165.6970021911285,
        "Mean Anomaly(deg)": 54.432600341991076,
        "RAAN(deg)": 249.9950201534299,
        "Satellite Name": "Constellation 1 1103",
        "Satellite Number": 1103,
        "Semi-Major Axis(m)": 7083131.272910544,
        "Time(s)": 88
    },
    {
        "Altitude(m)": 705200.5982444211,
        "Argument of Periapsis(deg)": 0.0053353725558411,
        "Eccentricity": 0.0,
        "Inclination(deg)": 45.0,
        "Latitude(deg)": 35.272095520485486,
        "Longitude(deg)": -165.636963266338,
        "Mean Anomaly(deg)": 54.49330148224101,
        "RAAN(deg)": 249.99496356426434,
        "Satellite Name": "Constellation 1 1103",
        "Satellite Number": 1103,
        "Semi-Major Axis(m)": 7083131.272910544,
        "Time(s)": 89
    },
    {
        "Altitude(m)": 705206.5310336937,
        "Argument of Periapsis(deg)": 0.005395320562086505,
        "Eccentricity": 0.0,
        "Inclination(deg)": 45.0,
        "Latitude(deg)": 35.302700713182425,
        "Longitude(deg)": -165.57687590664773,
        "Mean Anomaly(deg)": 54.55400262249089,
        "RAAN(deg)": 249.9949069750988,
        "Satellite Name": "Constellation 1 1103",
        "Satellite Number": 1103,
        "Semi-Major Axis(m)": 7083131.272910544,
        "Time(s)": 90
    },
    {
        "Altitude(m)": 705212.4619104351,
        "Argument of Periapsis(deg)": 0.00545526856833191,
        "Eccentricity": 0.0,
        "Inclination(deg)": 45.0,
        "Latitude(deg)": 35.33327165953693,
        "Longitude(deg)": -165.5167402429745,
        "Mean Anomaly(deg)": 54.61470376274079,
        "RAAN(deg)": 249.99485038593318,
        "Satellite Name": "Constellation 1 1103",
        "Satellite Number": 1103,
        "Semi-Major Axis(m)": 7083131.272910544,
        "Time(s)": 91
    },
    {
        "Altitude(m)": 705218.3908370067,
        "Argument of Periapsis(deg)": 0.005515216574577317,
        "Eccentricity": 0.0,
        "Inclination(deg)": 45.0,
        "Latitude(deg)": 35.36380829582311,
        "Longitude(deg)": -165.45655623835157,
        "Mean Anomaly(deg)": 54.67540490299072,
        "RAAN(deg)": 249.99479379676762,
        "Satellite Name": "Constellation 1 1103",
        "Satellite Number": 1103,
        "Semi-Major Axis(m)": 7083131.272910544,
        "Time(s)": 92
    },
    {
        "Altitude(m)": 705224.3177757915,
        "Argument of Periapsis(deg)": 0.005575164580822722,
        "Eccentricity": 0.0,
        "Inclination(deg)": 45.0,
        "Latitude(deg)": 35.39431055825302,
        "Longitude(deg)": -165.39632385602764,
        "Mean Anomaly(deg)": 54.73610604324061,
        "RAAN(deg)": 249.99473720760207,
        "Satellite Name": "Constellation 1 1103",
        "Satellite Number": 1103,
        "Semi-Major Axis(m)": 7083131.272910544,
        "Time(s)": 93
    },
    {
        "Altitude(m)": 705230.2426892132,
        "Argument of Periapsis(deg)": 0.005635112587068129,
        "Eccentricity": 0.0,
        "Inclination(deg)": 45.0,
        "Latitude(deg)": 35.4247783829773,
        "Longitude(deg)": -165.33604305946764,
        "Mean Anomaly(deg)": 54.79680718349049,
        "RAAN(deg)": 249.9946806184365,
        "Satellite Name": "Constellation 1 1103",
        "Satellite Number": 1103,
        "Semi-Major Axis(m)": 7083131.272910544,
        "Time(s)": 94
    }
]